FENGYUN 1C DEB          
1 29937U 99025JK  17345.92334729  .00000247  00000-0  18459-3 0  9997
2 29937  99.1200   4.4905 0031485 237.8405 190.5312 14.03887402559215
